STARLINK-36616          
1 67672U 26022AA  26043.58335648 -.01829786  90384-3 -62275-2 0  9991
2 67672  97.2791  76.3300 0001499  85.2922  44.4748 15.89930241  2853
COSMOS 2600             
1 67674U 26023A   26043.55389457  .00083969  00000+0  41218-3 0  9997
2 67674  96.6492 119.9849 0002001  64.9086 295.2392 15.81985032  1077
2026-023B               
1 67675U 26023B   26043.61620885  .00014259  00000+0  61729-3 0  9993
2 67675  96.6409 119.4723 0017426 220.5677 139.4264 15.22362501  1044
2026-023C               
1 67676U 26023C   26043.61597712  .00013022  00000+0  56275-3 0  9993
2 67676  96.6445 119.4839 0018622 209.9002 150.1175 15.22423028  1206
2026-023D               
1 67677U 26023D   26043.61645593  .00012068  00000+0  52359-3 0  9993
2 67677  96.6476 119.4665 0018735 215.3129 144.6870 15.22302135  1030
2026-023E               
1 67678U 26023E   26043.61610735  .00013765  00000+0  59515-3 0  9990
2 67678  96.6369 119.4734 0018609 214.6072 145.3956 15.22394129  1035
2026-023F               
1 67679U 26023F   26043.61545206  .00012169  00000+0  52400-3 0  9994
2 67679  96.6375 121.9695 0020552 209.0303 150.9794 15.22522417  1026
2026-023G               
1 67680U 26023G   26042.76119911  .00004260  00000+0  18544-3 0  9995
2 67680  96.6308 121.2169 0021981 208.3069 151.6977 15.22461471   898
2026-023H               
1 67681U 26023H   26042.76104727  .00003043  00000+0  13313-3 0  9992
2 67681  96.6434 121.2090 0021935 207.5112 152.4967 15.22485070   890
2026-023J               
1 67682U 26023J   26043.48390528  .00015363  00000+0  65922-3 0  9990
2 67682  96.6404 121.8631 0022326 202.1000 157.9278 15.22559272  1002
ISS OBJECT XZ           
1 67683U 98067XZ  26043.59546277  .00037700  00000+0  66896-3 0  9994
2 67683  51.6301 196.3375 0010748 105.0508 255.1671 15.49791484   897
GXIBA-1                 
1 67684U 98067YA  26043.59301282  .00067373  00000+0  11544-2 0  9998
2 67684  51.6297 196.3223 0012586  99.3252 260.9160 15.50501752   893
